ASTROCAST-0403          
1 55111U 23001DG  26068.82333059  .00013959  00000+0  51317-3 0  9990
2 55111  97.5604 161.3228 0004771 338.0704  22.0330 15.28004949129377
STARLINK-30992          
1 58524U 23191S   26068.49264049  .00058041  00000+0  21248-2 0  9996
2 58524  43.0031 104.3339 0001543 249.8077 110.2608 15.27227181125440
